GEOSCAN-3 (RS92S3)
1 64893U 25155T   26179.92249919  .00017988  00000-0  51798-3 0  9994
2 64893  97.4537 149.9388 0008101 128.3133 231.8840 15.35782945 82656
INNOSAT3 (RS92S0)
1 64894U 25155U   26179.91182039  .00037658  00000-0  80635-3 0  9991
2 64894  97.4483 151.6946 0007894 124.8663 235.3329 15.44656733 82773
KNACKSAT-2
1 67683U 98067XZ  26179.74970934  .00040953  00000-0  48134-3 0  9992
2 67683  51.6274 236.2750 0008553 267.1864  92.8150 15.60985813 22080
