OBJECT_NAME,OBJECT_ID,EPOCH,MEAN_MOTION,ECCENTRICITY,INCLINATION,RA_OF_ASC_NODE,ARG_OF_PERICENTER,MEAN_ANOMALY,EPHEMERIS_TYPE,CLASSIFICATION_TYPE,NORAD_CAT_ID,ELEMENT_SET_NO,REV_AT_EPOCH,BSTAR,MEAN_MOTION_DOT,MEAN_MOTION_DDOT
GEOSCAN 3 (RS92S3),2025-155T,2026-06-28T22:08:23.930016,15.35782945,.00081006,97.4537,149.9388,128.3133,231.8840,0,U,64893,999,8265,.51797847E-3,.17988E-3,0
INNOSAT 3 (RS92S0),2025-155U,2026-06-28T21:53:01.281696,15.44656733,.00078937,97.4483,151.6946,124.8663,235.3329,0,U,64894,999,8277,.80634833E-3,.37658E-3,0
KNACKSAT-2,1998-067XZ,2026-06-28T17:59:34.886976,15.60985813,.00085534,51.6274,236.2750,267.1864,92.8150,0,U,67683,999,2208,.48133706E-3,.40953E-3,0
